*******************************************************************************
Ephemeris / WWW_USER Mon Mar 24 11:10:26 2025 Pasadena, USA      / Horizons    
*******************************************************************************
Target body name: (2018 WV1)                      {source: JPL#17}
Center body name: Earth (399)                     {source: DE441}
Center-site name: Mauna Kea
*******************************************************************************
Start time      : A.D. 2018-Aug-04 05:07:00.0000 UT      
Stop  time      : A.D. 2018-Aug-04 15:49:00.0000 UT      
Step-size       : 1 minutes
*******************************************************************************
Target pole/equ : undefined
Target radii    : undefined                                                    
Center geodetic : 204.5278, 19.8260847, 4.21024   {E-lon(deg),Lat(deg),Alt(km)}
Center cylindric: 204.5278, 6006.35451, 2151.0229 {E-lon(deg),Dxy(km),Dz(km)}
Center pole/equ : ITRF93                          {East-longitude positive}
Center radii    : 6378.137, 6378.137, 6356.752 km {Equator_a, b, pole_c}       
Target primary  : Sun
Vis. interferer : MOON (R_eq= 1737.400) km        {source: DE441}
Rel. light bend : Sun                             {source: DE441}
Rel. lght bnd GM: 1.3271E+11 km^3/s^2                                          
Small-body perts: Yes                             {source: SB441-N16}
Atmos refraction: NO (AIRLESS)
RA format       : HMS
Time format     : CAL 
Calendar mode   : Mixed Julian/Gregorian
RTS-only print  : NO       
EOP file        : eop.250321.p250617                                           
EOP coverage    : DATA-BASED 1962-JAN-20 TO 2025-MAR-21. PREDICTS-> 2025-JUN-16
Units conversion: 1 au= 149597870.700 km, c= 299792.458 km/s, 1 day= 86400.0 s 
Table cut-offs 1: Elevation (-90.0deg=NO ),Airmass (>38.000=NO), Daylight (YES)
Table cut-offs 2: Solar elongation (  0.0,180.0=NO ),Local Hour Angle( 0.0=NO )
Table cut-offs 3: RA/DEC angular rate (     0.0=NO )                           
*******************************************************************************
Initial IAU76/J2000 heliocentric ecliptic osculating elements (au, days, deg.):
  EPOCH=  2458458.5 ! 2018-Dec-06.00 (TDB)         Residual RMS= .12928        
   EC= .06869100257422787  QR= .9715505345748198   TP= 2458416.866413563       
   OM= 248.5061090469913   W=  141.3742304527303   IN= 1.905403987972275       
  Equivalent ICRF heliocentric cartesian coordinates (au, au/d):
   X= 2.787163119783287E-01  Y= 8.719775267121872E-01  Z= 3.748421051204766E-01
  VX=-1.676682657337402E-02 VY= 5.516972965834891E-03 VZ= 1.749720915605096E-03
Asteroid physical parameters (km, seconds, rotational period in hours):        
   GM= n.a.                RAD= n.a.               ROTPER= n.a.                
   H= 30.3                 G= .150                 B-V= n.a.                   
                           ALBEDO= n.a.            STYP= n.a.                  
*******************************************************************************
 Date__(UT)__HR:MN     R.A._________(ICRF)_________DEC
******************************************************
$$SOE
 2018-Aug-04 15:22 Nm  00 41 03.351149 +07 03 06.85754
 2018-Aug-04 15:23 Nm  00 41 03.419424 +07 03 07.46828
 2018-Aug-04 15:24 Nm  00 41 03.487711 +07 03 08.07894
 2018-Aug-04 15:25 Nm  00 41 03.556011 +07 03 08.68953
 2018-Aug-04 15:26 Nm  00 41 03.624323 +07 03 09.30004
 2018-Aug-04 15:27 Nm  00 41 03.692648 +07 03 09.91047
 2018-Aug-04 15:28 Nm  00 41 03.760986 +07 03 10.52083
 2018-Aug-04 15:29 Nm  00 41 03.829338 +07 03 11.13112
 2018-Aug-04 15:30 Nm  00 41 03.897702 +07 03 11.74133
 2018-Aug-04 15:31 Nm  00 41 03.966081 +07 03 12.35146
 2018-Aug-04 15:32 Nm  00 41 04.034473 +07 03 12.96152
 2018-Aug-04 15:33 Nm  00 41 04.102878 +07 03 13.57150
 2018-Aug-04 15:34 Nm  00 41 04.171298 +07 03 14.18141
 2018-Aug-04 15:35 Nm  00 41 04.239732 +07 03 14.79125
 2018-Aug-04 15:36 Cm  00 41 04.308181 +07 03 15.40101
 2018-Aug-04 15:37 Cm  00 41 04.376644 +07 03 16.01069
 2018-Aug-04 15:38 Cm  00 41 04.445121 +07 03 16.62030
 2018-Aug-04 15:39 Cm  00 41 04.513614 +07 03 17.22984
 2018-Aug-04 15:40 Cm  00 41 04.582122 +07 03 17.83930
 2018-Aug-04 15:41 Cm  00 41 04.650645 +07 03 18.44869
 2018-Aug-04 15:42 Cm  00 41 04.719183 +07 03 19.05800
 2018-Aug-04 15:43 Cm  00 41 04.787737 +07 03 19.66724
 2018-Aug-04 15:44 Cm  00 41 04.856306 +07 03 20.27641
 2018-Aug-04 15:45 Cm  00 41 04.924892 +07 03 20.88550
 2018-Aug-04 15:46 Cm  00 41 04.993494 +07 03 21.49452
 2018-Aug-04 15:47 Cm  00 41 05.062111 +07 03 22.10347
 2018-Aug-04 15:48 Cm  00 41 05.130746 +07 03 22.71235
 2018-Aug-04 15:49 Cm  00 41 05.199396 +07 03 23.32115
